SL-4 R/B                
1 39679U 14021B   25344.59976252  .00019218  00000+0  45371-3 0  9998
2 39679  51.6076  50.9933 0101948 138.4788 222.3996 15.36586652642565
ALOS-2                  
1 39766U 14029A   25344.64641016  .00002959  00000+0  40295-3 0  9990
2 39766  97.9227  79.5227 0001518  98.8561 261.2822 14.79468531623702
YAOGAN-29               
1 41038U 15069A   25344.86277326  .00000141  00000+0  24074-4 0  9992
2 41038  98.0220   8.0280 0000330 344.6919  15.4284 14.82877230542714
ASTRO-H (HITOMI)        
1 41337U 16012A   25344.83848838  .00004931  00000+0  29557-3 0  9993
2 41337  30.9983 209.6298 0009544 159.9121 200.1894 15.09334195538794
HXMT (HUIYAN)           
1 42758U 17034A   25344.88041199  .00004652  00000+0  24554-3 0  9998
2 42758  43.0130 149.9458 0031716  31.3661 328.9070 15.16215245469052
CZ-2C R/B               
1 43521U 18054D   25344.64143347  .00132315  00000+0  89327-3 0  9999
2 43521  35.1318 195.1241 0015650 121.5731 238.6532 15.73524171414721
SAOCOM 1A               
1 43641U 18076A   25344.84911749  .00000514  00000+0  71116-4 0  9990
2 43641  97.8845 169.2989 0001502  81.0267 279.1116 14.82153343388209
H-2A R/B                
1 43682U 18084L   25344.80491176  .00026329  00000+0  71358-3 0  9996
2 43682  98.8780 178.4828 0027515 333.2079  26.7738 15.37257618392103
SAOCOM 1B               
1 46265U 20059A   25344.81285884  .00001351  00000+0  17619-3 0  9997
2 46265  97.8841 168.3637 0001325  85.4892 274.6473 14.82158262285583
CSS (TIANHE)            
1 48274U 21035A   25344.79300166  .00034842  00000+0  43591-3 0  9991
2 48274  41.4684  28.5253 0008717  14.5115 345.5972 15.59050574263725
COSMOS 2550             
1 48865U 21056A   25343.33525535  .00000017  00000+0  63535-5 0  9997
2 48865  67.1455 314.2314 0008326 269.7288  90.2912 15.33838976249607
CZ-2C R/B               
1 52794U 22058K   25344.22583625  .00035321  00000+0  63455-3 0  9994
2 52794  50.1906  56.3678 0045665 188.0814 171.9424 15.48324044196246
