CCSDS_OMM_VERS = 2.0
CREATION_DATE  = 
ORIGINATOR     = 

OBJECT_NAME    = SL-4 R/B
OBJECT_ID      = 2014-021B
CENTER_NAME    = EARTH
REF_FRAME      = TEME
TIME_SYSTEM    = UTC
MEAN_ELEMENT_THEORY = SGP/SGP4

EPOCH          = 2025-12-10T14:23:39.481728
MEAN_MOTION    = 15.36586652
ECCENTRICITY   = .0101948
INCLINATION    = 51.6076
RA_OF_ASC_NODE = 50.9933
ARG_OF_PERICENTER = 138.4788
MEAN_ANOMALY   = 222.3996

EPHEMERIS_TYPE = 0
CLASSIFICATION_TYPE = U
NORAD_CAT_ID   = 39679
ELEMENT_SET_NO = 999
REV_AT_EPOCH   = 64256
BSTAR          = .45371E-3
MEAN_MOTION_DOT = .19218E-3
MEAN_MOTION_DDOT = 0

CCSDS_OMM_VERS = 2.0
CREATION_DATE  = 
ORIGINATOR     = 

OBJECT_NAME    = ALOS-2
OBJECT_ID      = 2014-029A
CENTER_NAME    = EARTH
REF_FRAME      = TEME
TIME_SYSTEM    = UTC
MEAN_ELEMENT_THEORY = SGP/SGP4

EPOCH          = 2025-12-10T15:30:49.837824
MEAN_MOTION    = 14.79468531
ECCENTRICITY   = .0001518
INCLINATION    = 97.9227
RA_OF_ASC_NODE = 79.5227
ARG_OF_PERICENTER = 98.8561
MEAN_ANOMALY   = 261.2822

EPHEMERIS_TYPE = 0
CLASSIFICATION_TYPE = U
NORAD_CAT_ID   = 39766
ELEMENT_SET_NO = 999
REV_AT_EPOCH   = 62370
BSTAR          = .40295E-3
MEAN_MOTION_DOT = .2959E-4
MEAN_MOTION_DDOT = 0

CCSDS_OMM_VERS = 2.0
CREATION_DATE  = 
ORIGINATOR     = 

OBJECT_NAME    = YAOGAN-29
OBJECT_ID      = 2015-069A
CENTER_NAME    = EARTH
REF_FRAME      = TEME
TIME_SYSTEM    = UTC
MEAN_ELEMENT_THEORY = SGP/SGP4

EPOCH          = 2025-12-10T20:42:23.609664
MEAN_MOTION    = 14.82877230
ECCENTRICITY   = .000033
INCLINATION    = 98.0220
RA_OF_ASC_NODE = 8.0280
ARG_OF_PERICENTER = 344.6919
MEAN_ANOMALY   = 15.4284

EPHEMERIS_TYPE = 0
CLASSIFICATION_TYPE = U
NORAD_CAT_ID   = 41038
ELEMENT_SET_NO = 999
REV_AT_EPOCH   = 54271
BSTAR          = .24074E-4
MEAN_MOTION_DOT = .141E-5
MEAN_MOTION_DDOT = 0

CCSDS_OMM_VERS = 2.0
CREATION_DATE  = 
ORIGINATOR     = 

OBJECT_NAME    = ASTRO-H (HITOMI)
OBJECT_ID      = 2016-012A
CENTER_NAME    = EARTH
REF_FRAME      = TEME
TIME_SYSTEM    = UTC
MEAN_ELEMENT_THEORY = SGP/SGP4

EPOCH          = 2025-12-10T20:07:25.396032
MEAN_MOTION    = 15.09334195
ECCENTRICITY   = .0009544
INCLINATION    = 30.9983
RA_OF_ASC_NODE = 209.6298
ARG_OF_PERICENTER = 159.9121
MEAN_ANOMALY   = 200.1894

EPHEMERIS_TYPE = 0
CLASSIFICATION_TYPE = U
NORAD_CAT_ID   = 41337
ELEMENT_SET_NO = 999
REV_AT_EPOCH   = 53879
BSTAR          = .29557E-3
MEAN_MOTION_DOT = .4931E-4
MEAN_MOTION_DDOT = 0

CCSDS_OMM_VERS = 2.0
CREATION_DATE  = 
ORIGINATOR     = 

OBJECT_NAME    = HXMT (HUIYAN)
OBJECT_ID      = 2017-034A
CENTER_NAME    = EARTH
REF_FRAME      = TEME
TIME_SYSTEM    = UTC
MEAN_ELEMENT_THEORY = SGP/SGP4

EPOCH          = 2025-12-10T21:07:47.595936
MEAN_MOTION    = 15.16215245
ECCENTRICITY   = .0031716
INCLINATION    = 43.0130
RA_OF_ASC_NODE = 149.9458
ARG_OF_PERICENTER = 31.3661
MEAN_ANOMALY   = 328.9070

EPHEMERIS_TYPE = 0
CLASSIFICATION_TYPE = U
NORAD_CAT_ID   = 42758
ELEMENT_SET_NO = 999
REV_AT_EPOCH   = 46905
BSTAR          = .24554E-3
MEAN_MOTION_DOT = .4652E-4
MEAN_MOTION_DDOT = 0

CCSDS_OMM_VERS = 2.0
CREATION_DATE  = 
ORIGINATOR     = 

OBJECT_NAME    = CZ-2C R/B
OBJECT_ID      = 2018-054D
CENTER_NAME    = EARTH
REF_FRAME      = TEME
TIME_SYSTEM    = UTC
MEAN_ELEMENT_THEORY = SGP/SGP4

EPOCH          = 2025-12-10T15:23:39.851808
MEAN_MOTION    = 15.73524171
ECCENTRICITY   = .001565
INCLINATION    = 35.1318
RA_OF_ASC_NODE = 195.1241
ARG_OF_PERICENTER = 121.5731
MEAN_ANOMALY   = 238.6532

EPHEMERIS_TYPE = 0
CLASSIFICATION_TYPE = U
NORAD_CAT_ID   = 43521
ELEMENT_SET_NO = 999
REV_AT_EPOCH   = 41472
BSTAR          = .89327E-3
MEAN_MOTION_DOT = .132315E-2
MEAN_MOTION_DDOT = 0

CCSDS_OMM_VERS = 2.0
CREATION_DATE  = 
ORIGINATOR     = 

OBJECT_NAME    = SAOCOM 1A
OBJECT_ID      = 2018-076A
CENTER_NAME    = EARTH
REF_FRAME      = TEME
TIME_SYSTEM    = UTC
MEAN_ELEMENT_THEORY = SGP/SGP4

EPOCH          = 2025-12-10T20:22:43.751136
MEAN_MOTION    = 14.82153343
ECCENTRICITY   = .0001502
INCLINATION    = 97.8845
RA_OF_ASC_NODE = 169.2989
ARG_OF_PERICENTER = 81.0267
MEAN_ANOMALY   = 279.1116

EPHEMERIS_TYPE = 0
CLASSIFICATION_TYPE = U
NORAD_CAT_ID   = 43641
ELEMENT_SET_NO = 999
REV_AT_EPOCH   = 38820
BSTAR          = .71116E-4
MEAN_MOTION_DOT = .514E-5
MEAN_MOTION_DDOT = 0

CCSDS_OMM_VERS = 2.0
CREATION_DATE  = 
ORIGINATOR     = 

OBJECT_NAME    = H-2A R/B
OBJECT_ID      = 2018-084L
CENTER_NAME    = EARTH
REF_FRAME      = TEME
TIME_SYSTEM    = UTC
MEAN_ELEMENT_THEORY = SGP/SGP4

EPOCH          = 2025-12-10T19:19:04.376064
MEAN_MOTION    = 15.37257618
ECCENTRICITY   = .0027515
INCLINATION    = 98.8780
RA_OF_ASC_NODE = 178.4828
ARG_OF_PERICENTER = 333.2079
MEAN_ANOMALY   = 26.7738

EPHEMERIS_TYPE = 0
CLASSIFICATION_TYPE = U
NORAD_CAT_ID   = 43682
ELEMENT_SET_NO = 999
REV_AT_EPOCH   = 39210
BSTAR          = .71358E-3
MEAN_MOTION_DOT = .26329E-3
MEAN_MOTION_DDOT = 0

CCSDS_OMM_VERS = 2.0
CREATION_DATE  = 
ORIGINATOR     = 

OBJECT_NAME    = SAOCOM 1B
OBJECT_ID      = 2020-059A
CENTER_NAME    = EARTH
REF_FRAME      = TEME
TIME_SYSTEM    = UTC
MEAN_ELEMENT_THEORY = SGP/SGP4

EPOCH          = 2025-12-10T19:30:31.003776
MEAN_MOTION    = 14.82158262
ECCENTRICITY   = .0001325
INCLINATION    = 97.8841
RA_OF_ASC_NODE = 168.3637
ARG_OF_PERICENTER = 85.4892
MEAN_ANOMALY   = 274.6473

EPHEMERIS_TYPE = 0
CLASSIFICATION_TYPE = U
NORAD_CAT_ID   = 46265
ELEMENT_SET_NO = 999
REV_AT_EPOCH   = 28558
BSTAR          = .17619E-3
MEAN_MOTION_DOT = .1351E-4
MEAN_MOTION_DDOT = 0

CCSDS_OMM_VERS = 2.0
CREATION_DATE  = 
ORIGINATOR     = 

OBJECT_NAME    = CSS (TIANHE)
OBJECT_ID      = 2021-035A
CENTER_NAME    = EARTH
REF_FRAME      = TEME
TIME_SYSTEM    = UTC
MEAN_ELEMENT_THEORY = SGP/SGP4

EPOCH          = 2025-12-10T19:01:55.343424
MEAN_MOTION    = 15.59050574
ECCENTRICITY   = .0008717
INCLINATION    = 41.4684
RA_OF_ASC_NODE = 28.5253
ARG_OF_PERICENTER = 14.5115
MEAN_ANOMALY   = 345.5972

EPHEMERIS_TYPE = 0
CLASSIFICATION_TYPE = U
NORAD_CAT_ID   = 48274
ELEMENT_SET_NO = 999
REV_AT_EPOCH   = 26372
BSTAR          = .43591E-3
MEAN_MOTION_DOT = .34842E-3
MEAN_MOTION_DDOT = 0

CCSDS_OMM_VERS = 2.0
CREATION_DATE  = 
ORIGINATOR     = 

OBJECT_NAME    = COSMOS 2550
OBJECT_ID      = 2021-056A
CENTER_NAME    = EARTH
REF_FRAME      = TEME
TIME_SYSTEM    = UTC
MEAN_ELEMENT_THEORY = SGP/SGP4

EPOCH          = 2025-12-09T08:02:46.062240
MEAN_MOTION    = 15.33838976
ECCENTRICITY   = .0008326
INCLINATION    = 67.1455
RA_OF_ASC_NODE = 314.2314
ARG_OF_PERICENTER = 269.7288
MEAN_ANOMALY   = 90.2912

EPHEMERIS_TYPE = 0
CLASSIFICATION_TYPE = U
NORAD_CAT_ID   = 48865
ELEMENT_SET_NO = 999
REV_AT_EPOCH   = 24960
BSTAR          = .63535E-5
MEAN_MOTION_DOT = .17E-6
MEAN_MOTION_DDOT = 0

CCSDS_OMM_VERS = 2.0
CREATION_DATE  = 
ORIGINATOR     = 

OBJECT_NAME    = CZ-2C R/B
OBJECT_ID      = 2022-058K
CENTER_NAME    = EARTH
REF_FRAME      = TEME
TIME_SYSTEM    = UTC
MEAN_ELEMENT_THEORY = SGP/SGP4

EPOCH          = 2025-12-10T05:25:12.252000
MEAN_MOTION    = 15.48324044
ECCENTRICITY   = .0045665
INCLINATION    = 50.1906
RA_OF_ASC_NODE = 56.3678
ARG_OF_PERICENTER = 188.0814
MEAN_ANOMALY   = 171.9424

EPHEMERIS_TYPE = 0
CLASSIFICATION_TYPE = U
NORAD_CAT_ID   = 52794
ELEMENT_SET_NO = 999
REV_AT_EPOCH   = 19624
BSTAR          = .63455E-3
MEAN_MOTION_DOT = .35321E-3
MEAN_MOTION_DDOT = 0

